{
  "norad_id": 47302,
  "name": "YAOGAN-33 01",
  "history": [
    {
      "epoch": "2026-03-28T21:53:14.278848Z",
      "apogee_km": 699.5903983441822,
      "perigee_km": 694.1509909283932,
      "latitude_deg": -2.2912328326969924e-05,
      "longitude_deg": 177.36679263585614,
      "height_km": 697.9090277384172,
      "semi_major_axis_km": 7075.007694636288,
      "eccentricity": 0.00038441,
      "inclination_deg": 98.053,
      "raan_deg": 332.0019,
      "arg_perigee_deg": 44.35,
      "mean_anomaly_deg": 315.8007,
      "mean_motion_rev_day": 14.5885587
    },
    {
      "epoch": "2026-03-29T04:28:18.168960Z",
      "apogee_km": 699.5807540712303,
      "perigee_km": 694.1584690041482,
      "latitude_deg": -1.1109681062228828e-05,
      "longitude_deg": 78.59606996429584,
      "height_km": 697.8953255093215,
      "semi_major_axis_km": 7075.006611537689,
      "eccentricity": 0.0003832,
      "inclination_deg": 98.053,
      "raan_deg": 332.2678,
      "arg_perigee_deg": 43.7786,
      "mean_anomaly_deg": 316.3717,
      "mean_motion_rev_day": 14.58856205
    },
    {
      "epoch": "2026-03-30T05:09:47.695104Z",
      "apogee_km": 699.5387308607151,
      "perigee_km": 694.1900298171786,
      "latitude_deg": 4.314432847400023e-05,
      "longitude_deg": 68.20649208031166,
      "height_km": 697.8408509079784,
      "semi_major_axis_km": 7075.001380338947,
      "eccentricity": 0.000378,
      "inclination_deg": 98.0526,
      "raan_deg": 333.2653,
      "arg_perigee_deg": 41.369,
      "mean_anomaly_deg": 318.7796,
      "mean_motion_rev_day": 14.58857823
    },
    {
      "epoch": "2026-03-30T06:48:33.661152Z",
      "apogee_km": 699.5369285502056,
      "perigee_km": 694.1913406929307,
      "latitude_deg": 3.180371165411375e-05,
      "longitude_deg": 43.5138655615576,
      "height_km": 697.8378875620618,
      "semi_major_axis_km": 7075.001134621568,
      "eccentricity": 0.00037778,
      "inclination_deg": 98.0526,
      "raan_deg": 333.3318,
      "arg_perigee_deg": 41.2423,
      "mean_anomaly_deg": 318.9062,
      "mean_motion_rev_day": 14.58857899
    },
    {
      "epoch": "2026-03-30T15:02:23.475840Z",
      "apogee_km": 699.5228169273696,
      "perigee_km": 694.2019928749205,
      "latitude_deg": 2.1057573578750758e-05,
      "longitude_deg": -79.94930852164332,
      "height_km": 697.8211844128248,
      "semi_major_axis_km": 7074.999404901145,
      "eccentricity": 0.00037603,
      "inclination_deg": 98.0525,
      "raan_deg": 333.6642,
      "arg_perigee_deg": 40.4394,
      "mean_anomaly_deg": 319.7085,
      "mean_motion_rev_day": 14.58858434
    },
    {
      "epoch": "2026-03-30T21:37:27.327936Z",
      "apogee_km": 699.5111059714245,
      "perigee_km": 694.2119320806742,
      "latitude_deg": -1.9320024811025828e-05,
      "longitude_deg": -178.71976476018682,
      "height_km": 697.8106219958349,
      "semi_major_axis_km": 7074.9985190260495,
      "eccentricity": 0.0003745,
      "inclination_deg": 98.0525,
      "raan_deg": 333.9302,
      "arg_perigee_deg": 39.8358,
      "mean_anomaly_deg": 320.3116,
      "mean_motion_rev_day": 14.58858708
    },
    {
      "epoch": "2026-03-31T20:40:10.760160Z",
      "apogee_km": 699.4673517166948,
      "perigee_km": 694.2460063815561,
      "latitude_deg": 5.2690584977809945e-05,
      "longitude_deg": -164.41618202870586,
      "height_km": 697.7683841693951,
      "semi_major_axis_km": 7074.993679049125,
      "eccentricity": 0.000369,
      "inclination_deg": 98.0526,
      "raan_deg": 334.8612,
      "arg_perigee_deg": 37.4623,
      "mean_anomaly_deg": 322.6834,
      "mean_motion_rev_day": 14.58860205
    },
    {
      "epoch": "2026-04-01T19:42:54.150912Z",
      "apogee_km": 699.4294580463911,
      "perigee_km": 694.2802789644929,
      "latitude_deg": -2.432656733679609e-05,
      "longitude_deg": -150.11250516950247,
      "height_km": 697.7335136364941,
      "semi_major_axis_km": 7074.991868505442,
      "eccentricity": 0.0003639,
      "inclination_deg": 98.0522,
      "raan_deg": 335.7921,
      "arg_perigee_deg": 35.1318,
      "mean_anomaly_deg": 325.0121,
      "mean_motion_rev_day": 14.58860765
    },
    {
      "epoch": "2026-04-02T20:24:23.366880Z",
      "apogee_km": 699.3880519799604,
      "perigee_km": 694.3110416339705,
      "latitude_deg": -3.875911118832002e-05,
      "longitude_deg": -160.5008772979946,
      "height_km": 697.7017877602652,
      "semi_major_axis_km": 7074.986546806965,
      "eccentricity": 0.0003588,
      "inclination_deg": 98.0522,
      "raan_deg": 336.7895,
      "arg_perigee_deg": 32.8642,
      "mean_anomaly_deg": 327.278,
      "mean_motion_rev_day": 14.58862411
    },
    {
      "epoch": "2026-04-02T22:03:09.306144Z",
      "apogee_km": 699.3847805094283,
      "perigee_km": 694.3128646729283,
      "latitude_deg": -4.253987072270121e-05,
      "longitude_deg": 174.8066069935985,
      "height_km": 697.7042447057121,
      "semi_major_axis_km": 7074.985822591178,
      "eccentricity": 0.00035844,
      "inclination_deg": 98.0522,
      "raan_deg": 336.856,
      "arg_perigee_deg": 32.9075,
      "mean_anomaly_deg": 327.2347,
      "mean_motion_rev_day": 14.58862635
    },
    {
      "epoch": "2026-04-03T21:05:52.397952Z",
      "apogee_km": 699.33814959765,
      "perigee_km": 694.3389718664366,
      "latitude_deg": -6.8519508086987e-05,
      "longitude_deg": -170.88847553600897,
      "height_km": 697.6729890925399,
      "semi_major_axis_km": 7074.975560732043,
      "eccentricity": 0.0003533,
      "inclination_deg": 98.052,
      "raan_deg": 337.7869,
      "arg_perigee_deg": 30.6532,
      "mean_anomaly_deg": 329.4873,
      "mean_motion_rev_day": 14.58865809
    },
    {
      "epoch": "2026-04-04T06:58:27.986880Z",
      "apogee_km": 699.3171583585154,
      "perigee_km": 694.3584500177558,
      "latitude_deg": 4.9960385622397664e-05,
      "longitude_deg": 40.956504710659466,
      "height_km": 697.6664061758815,
      "semi_major_axis_km": 7074.974804188135,
      "eccentricity": 0.00035044,
      "inclination_deg": 98.0518,
      "raan_deg": 338.1858,
      "arg_perigee_deg": 29.578,
      "mean_anomaly_deg": 330.5618,
      "mean_motion_rev_day": 14.58866043
    },
    {
      "epoch": "2026-04-05T15:53:46.570848Z",
      "apogee_km": 699.246743483749,
      "perigee_km": 694.4187841169314,
      "latitude_deg": -1.8035922516064643e-05,
      "longitude_deg": -92.89337225182571,
      "height_km": 697.6468772536801,
      "semi_major_axis_km": 7074.96976380034,
      "eccentricity": 0.0003412,
      "inclination_deg": 98.0515,
      "raan_deg": 339.5154,
      "arg_perigee_deg": 25.9187,
      "mean_anomaly_deg": 334.2183,
      "mean_motion_rev_day": 14.58867602
    },
    {
      "epoch": "2026-04-05T20:50:04.348896Z",
      "apogee_km": 699.2364172922407,
      "perigee_km": 694.4268536138607,
      "latitude_deg": -5.240078305686846e-06,
      "longitude_deg": -166.97075723214684,
      "height_km": 697.6466990899459,
      "semi_major_axis_km": 7074.96863545305,
      "eccentricity": 0.0003399,
      "inclination_deg": 98.0514,
      "raan_deg": 339.7149,
      "arg_perigee_deg": 25.514,
      "mean_anomaly_deg": 334.6227,
      "mean_motion_rev_day": 14.58867951
    },
    {
      "epoch": "2026-04-06T06:42:39.879936Z",
      "apogee_km": 699.2195283596393,
      "perigee_km": 694.4418026951089,
      "latitude_deg": -1.6215558820698862e-05,
      "longitude_deg": 44.87448244489534,
      "height_km": 697.640730250933,
      "semi_major_axis_km": 7074.967665527373,
      "eccentricity": 0.00033765,
      "inclination_deg": 98.0513,
      "raan_deg": 340.1138,
      "arg_perigee_deg": 24.4065,
      "mean_anomaly_deg": 335.7294,
      "mean_motion_rev_day": 14.58868251
    },
    {
      "epoch": "2026-04-07T15:37:58.268640Z",
      "apogee_km": 699.1547990478739,
      "perigee_km": 694.4974923083364,
      "latitude_deg": -2.4513937699265123e-05,
      "longitude_deg": -88.97448892650193,
      "height_km": 697.639844011486,
      "semi_major_axis_km": 7074.963145678104,
      "eccentricity": 0.00032914,
      "inclination_deg": 98.0511,
      "raan_deg": 341.4435,
      "arg_perigee_deg": 21.1284,
      "mean_anomaly_deg": 339.0051,
      "mean_motion_rev_day": 14.58869649
    },
    {
      "epoch": "2026-04-07T20:34:16.013856Z",
      "apogee_km": 699.1424037444422,
      "perigee_km": 694.5083034028512,
      "latitude_deg": 3.3096907962047686e-05,
      "longitude_deg": -163.05184327196815,
      "height_km": 697.6430795768279,
      "semi_major_axis_km": 7074.962353573646,
      "eccentricity": 0.0003275,
      "inclination_deg": 98.0511,
      "raan_deg": 341.6429,
      "arg_perigee_deg": 20.6541,
      "mean_anomaly_deg": 339.4791,
      "mean_motion_rev_day": 14.58869894
    },
    {
      "epoch": "2026-04-08T14:40:41.057184Z",
      "apogee_km": 699.1088139206522,
      "perigee_km": 694.5385308255136,
      "latitude_deg": 4.1637001819177284e-05,
      "longitude_deg": -74.66852025988688,
      "height_km": 697.6465001990668,
      "semi_major_axis_km": 7074.960672373083,
      "eccentricity": 0.00032299,
      "inclination_deg": 98.051,
      "raan_deg": 342.3742,
      "arg_perigee_deg": 18.801,
      "mean_anomaly_deg": 341.3309,
      "mean_motion_rev_day": 14.58870414
    },
    {
      "epoch": "2026-04-09T20:18:27.431712Z",
      "apogee_km": 699.0355964630126,
      "perigee_km": 694.6010144775428,
      "latitude_deg": 8.813664699990492e-05,
      "longitude_deg": -159.13189997976028,
      "height_km": 697.6694470707301,
      "semi_major_axis_km": 7074.955305470277,
      "eccentricity": 0.0003134,
      "inclination_deg": 98.0509,
      "raan_deg": 343.5709,
      "arg_perigee_deg": 15.6374,
      "mean_anomaly_deg": 344.4923,
      "mean_motion_rev_day": 14.58872074
    }
  ]
}